[
  "FORMOSAT-2 (ROCSAT 2)   \r\n1 28254U 04018A   26171.41174916 -.00000204  00000+0 -10700-3 0  9992\r\n2 28254  98.8460 138.7962 0001447 350.2195 169.8953 14.01261125129203\r\n",
  "FORMOSAT-3 FM6          \r\n1 29047U 06011A   26171.45689360  .00000317  00000+0  13352-3 0  9995\r\n2 29047  71.9781 304.6494 0049584 233.3201 126.3376 14.31399259 54879\r\n",
  "FORMOSAT-3 FM1          \r\n1 29048U 06011B   26171.45073404  .00000211  00000+0  94284-4 0  9999\r\n2 29048  71.9647 213.0777 0042638 197.2791 162.6898 14.31391876 57246\r\n",
  "FORMOSAT-3 FM5          \r\n1 29049U 06011C   26171.36114362  .00000233  00000+0  10278-3 0  9993\r\n2 29049  72.0191  37.4091 0034498 203.9211 156.0327 14.31406276 53125\r\n",
  "FORMOSAT-3 FM3          \r\n1 29050U 06011D   26171.45810409  .00000901  00000+0  16783-3 0  9999\r\n2 29050  72.0140 305.2230 0044887 279.0428  80.5650 14.66964634 76859\r\n",
  "FORMOSAT-3 FM4          \r\n1 29051U 06011E   26171.39103977  .00000264  00000+0  11213-3 0  9993\r\n2 29051  72.0045 294.8888 0064357  84.8737 275.9742 14.31541450 55729\r\n",
  "FORMOSAT-3 FM2          \r\n1 29052U 06011F   26171.31983404  .00000255  00000+0  11022-3 0  9995\r\n2 29052  72.0329  15.8648 0038294 157.1728 203.1123 14.31619261 53231\r\n",
  "FORMOSAT-5              \r\n1 42920U 17049A   26171.43210432  .00000097  00000+0  35731-4 0  9992\r\n2 42920  98.2254 246.6698 0012638  75.3872 284.8723 14.50899817467140\r\n",
  "FORMOSAT 7-3            \r\n1 44343U 19036E   26171.35603525  .00003062  00000+0  16373-3 0  9996\r\n2 44343  23.9975 156.7294 0000452 341.4981  18.5506 15.09815118383727\r\n",
  "FORMOSAT 7-1            \r\n1 44349U 19036L   26170.71402264  .00002196  00000+0  16266-3 0  9996\r\n2 44349  23.9991  15.3581 0000595 182.6782 177.3716 14.96514586385035\r\n",
  "FORMOSAT 7-4            \r\n1 44350U 19036M   26171.40328196  .00001995  00000+0  14538-3 0  9992\r\n2 44350  23.9983  72.8155 0000954 218.3528 141.6905 14.96508321384557\r\n",
  "FORMOSAT 7-2            \r\n1 44351U 19036N   26171.15891346  .00001948  00000+0  14134-3 0  9997\r\n2 44351  23.9971 128.7788 0000518 194.5435 165.5051 14.96508024384036\r\n",
  "FORMOSAT 7-6            \r\n1 44353U 19036Q   26171.42535958  .00002196  00000+0  16258-3 0  9998\r\n2 44353  23.9989 307.8006 0001335 121.5447 238.5184 14.96523355382301\r\n",
  "FORMOSAT 7-5            \r\n1 44358U 19036V   26171.40260039  .00001886  00000+0  13598-3 0  9995\r\n2 44358  23.9977 246.7047 0000343 145.3181 214.7342 14.96527982382836\r\n",
  "FORMOSAT-7R (TRITON)    \r\n1 58017U 23155B   26171.19193850  .00001130  00000+0  11962-3 0  9996\r\n2 58017  97.8356 252.5643 0002548  85.2460 274.9049 14.91125044146672\r\n",
  "NIGHTJAR                \r\n1 60535U 24149BV  26171.19599356  .00001896  00000+0  16118-3 0  9996\r\n2 60535  97.6834 247.8615 0000947  83.6034 276.5297 14.99028220143323\r\n",
  "FORMOSAT-8A             \r\n1 66666U 25276A   26171.20630524  .00001172  00000+0  96828-4 0  9998\r\n2 66666  97.6546 245.4062 0002663 247.3893 112.7050 15.00860579 30511\r\n",
  "T.MICROSAT-1            \r\n1 66766U 25276DE  26170.70799388  .00004443  00000+0  20446-3 0  9993\r\n2 66766  97.4158 244.3965 0001864 119.9555 240.1866 15.20835352 30828\r\n",
  "BLACK KITE-2            \r\n1 68474U 26067BL  26171.43244306  .00002036  00000+0  20333-3 0  9997\r\n2 68474  97.7550 129.6729 0001092 180.6629 179.4589 14.92594451 12217\r\n"
]